{
  "type": "FeatureCollection",
  "features": [
    {
      "type": "Feature",
      "properties": {
        "norad_id": 36828,
        "name": "BEIDOU-2 IGSO-1 (C06)",
        "group": "beidou",
        "lat": -12.082310496908299,
        "lon": -6.460582956102237,
        "alt_km": 35585.083773120175,
        "timestamp": "2025-12-09T11:33:55.064626+00:00",
        "meta_object_name": "BEIDOU-2 IGSO-1 (C06)",
        "meta_object_id": "2010-036A",
        "meta_epoch": "2025-12-08T22:40:34.354848",
        "meta_mean_motion": 1.00277328,
        "meta_eccentricity": 0.0051252,
        "meta_inclination": 54.2862,
        "meta_ra_of_asc_node": 164.6817,
        "meta_arg_of_pericenter": 215.9151,
        "meta_mean_anomaly": 145.3362,
        "meta_ephemeris_type": 0,
        "meta_classification_type": "U",
        "meta_norad_cat_id": 36828,
        "meta_element_set_no": 999,
        "meta_rev_at_epoch": 5619,
        "meta_bstar": 0,
        "meta_mean_motion_dot": -6.9e-07,
        "meta_mean_motion_ddot": 0,
        "tle_line1": "1 36828U 10036A   25342.94484207 -.00000069  00000+0  00000+0 0  9995",
        "tle_line2": "2 36828  54.2862 164.6817 0051252 215.9151 145.3362  1.00277328 56193"
      },
      "geometry": {
        "type": "Point",
        "coordinates": [
          -6.460582956102237,
          -12.082310496908299
        ]
      }
    },
    {
      "type": "Feature",
      "properties": {
        "norad_id": 37210,
        "name": "BEIDOU-2 G4 (C04)",
        "group": "beidou",
        "lat": -0.9554647714147372,
        "lon": 52.1065494835316,
        "alt_km": 35827.59756515353,
        "timestamp": "2025-12-09T11:33:55.064649+00:00",
        "meta_object_name": "BEIDOU-2 G4 (C04)",
        "meta_object_id": "2010-057A",
        "meta_epoch": "2025-12-09T04:03:41.248224",
        "meta_mean_motion": 1.002712,
        "meta_eccentricity": 0.0010979,
        "meta_inclination": 3.1754,
        "meta_ra_of_asc_node": 69.9401,
        "meta_arg_of_pericenter": 189.6703,
        "meta_mean_anomaly": 39.5481,
        "meta_ephemeris_type": 0,
        "meta_classification_type": "U",
        "meta_norad_cat_id": 37210,
        "meta_element_set_no": 999,
        "meta_rev_at_epoch": 5538,
        "meta_bstar": 0,
        "meta_mean_motion_dot": -1.1e-06,
        "meta_mean_motion_ddot": 0,
        "tle_line1": "1 37210U 10057A   25343.16922741 -.00000110  00000+0  00000+0 0  9996",
        "tle_line2": "2 37210   3.1754  69.9401 0010979 189.6703  39.5481  1.00271200 55388"
      },
      "geometry": {
        "type": "Point",
        "coordinates": [
          52.1065494835316,
          -0.9554647714147372
        ]
      }
    },
    {
      "type": "Feature",
      "properties": {
        "norad_id": 37256,
        "name": "BEIDOU-2 IGSO-2 (C07)",
        "group": "beidou",
        "lat": 47.67121482943138,
        "lon": -3.553466160710873,
        "alt_km": 35912.72715281201,
        "timestamp": "2025-12-09T11:33:55.064664+00:00",
        "meta_object_name": "BEIDOU-2 IGSO-2 (C07)",
        "meta_object_id": "2010-068A",
        "meta_epoch": "2025-12-03T17:22:36.027840",
        "meta_mean_motion": 1.0028872,
        "meta_eccentricity": 0.00492449,
        "meta_inclination": 47.9042,
        "meta_ra_of_asc_node": 274.2614,
        "meta_arg_of_pericenter": 216.1411,
        "meta_mean_anomaly": 310.24,
        "meta_ephemeris_type": 0,
        "meta_classification_type": "U",
        "meta_norad_cat_id": 37256,
        "meta_element_set_no": 999,
        "meta_rev_at_epoch": 5483,
        "meta_bstar": 0,
        "meta_mean_motion_dot": -2.25e-06,
        "meta_mean_motion_ddot": 0,
        "tle_line1": "1 37256U 10068A   25337.72402810 -.00000225  00000+0  00000+0 0  9990",
        "tle_line2": "2 37256  47.9042 274.2614 0049244 216.1411 310.2400  1.00288720 54834"
      },
      "geometry": {
        "type": "Point",
        "coordinates": [
          -3.553466160710873,
          47.67121482943138
        ]
      }
    },
    {
      "type": "Feature",
      "properties": {
        "norad_id": 37384,
        "name": "BEIDOU-2 IGSO-3 (C08)",
        "group": "beidou",
        "lat": -36.39249622862779,
        "lon": 19.066153476860112,
        "alt_km": 35888.03072564438,
        "timestamp": "2025-12-09T11:33:55.064677+00:00",
        "meta_object_name": "BEIDOU-2 IGSO-3 (C08)",
        "meta_object_id": "2011-013A",
        "meta_epoch": "2025-12-07T14:00:04.361184",
        "meta_mean_motion": 1.00271435,
        "meta_eccentricity": 0.0035334,
        "meta_inclination": 62.1366,
        "meta_ra_of_asc_node": 41.9657,
        "meta_arg_of_pericenter": 187.0632,
        "meta_mean_anomaly": 165.2408,
        "meta_ephemeris_type": 0,
        "meta_classification_type": "U",
        "meta_norad_cat_id": 37384,
        "meta_element_set_no": 999,
        "meta_rev_at_epoch": 5373,
        "meta_bstar": 0,
        "meta_mean_motion_dot": -1.91e-06,
        "meta_mean_motion_ddot": 0,
        "tle_line1": "1 37384U 11013A   25341.58338381 -.00000191  00000+0  00000+0 0  9995",
        "tle_line2": "2 37384  62.1366  41.9657 0035334 187.0632 165.2408  1.00271435 53735"
      },
      "geometry": {
        "type": "Point",
        "coordinates": [
          19.066153476860112,
          -36.39249622862779
        ]
      }
    },
    {
      "type": "Feature",
      "properties": {
        "norad_id": 37763,
        "name": "BEIDOU-2 IGSO-4 (C09)",
        "group": "beidou",
        "lat": 2.001363072821248,
        "lon": -14.055598311790998,
        "alt_km": 35397.0676758477,
        "timestamp": "2025-12-09T11:33:55.064689+00:00",
        "meta_object_name": "BEIDOU-2 IGSO-4 (C09)",
        "meta_object_id": "2011-038A",
        "meta_epoch": "2025-12-01T12:32:09.960864",
        "meta_mean_motion": 1.00284084,
        "meta_eccentricity": 0.01488084,
        "meta_inclination": 54.5806,
        "meta_ra_of_asc_node": 167.4476,
        "meta_arg_of_pericenter": 230.2017,
        "meta_mean_anomaly": 315.0405,
        "meta_ephemeris_type": 0,
        "meta_classification_type": "U",
        "meta_norad_cat_id": 37763,
        "meta_element_set_no": 999,
        "meta_rev_at_epoch": 5266,
        "meta_bstar": 0,
        "meta_mean_motion_dot": 1.01e-06,
        "meta_mean_motion_ddot": 0,
        "tle_line1": "1 37763U 11038A   25335.52233751  .00000101  00000+0  00000+0 0  9995",
        "tle_line2": "2 37763  54.5806 167.4476 0148808 230.2017 315.0405  1.00284084 52669"
      },
      "geometry": {
        "type": "Point",
        "coordinates": [
          -14.055598311790998,
          2.001363072821248
        ]
      }
    },
    {
      "type": "Feature",
      "properties": {
        "norad_id": 37948,
        "name": "BEIDOU-2 IGSO-5 (C10)",
        "group": "beidou",
        "lat": 44.43187385847169,
        "lon": -24.391832354368738,
        "alt_km": 36184.10748838704,
        "timestamp": "2025-12-09T11:33:55.064703+00:00",
        "meta_object_name": "BEIDOU-2 IGSO-5 (C10)",
        "meta_object_id": "2011-073A",
        "meta_epoch": "2025-12-07T19:12:14.882400",
        "meta_mean_motion": 1.00291658,
        "meta_eccentricity": 0.01104068,
        "meta_inclination": 48.0298,
        "meta_ra_of_asc_node": 273.9181,
        "meta_arg_of_pericenter": 222.1784,
        "meta_mean_anomaly": 321.4594,
        "meta_ephemeris_type": 0,
        "meta_classification_type": "U",
        "meta_norad_cat_id": 37948,
        "meta_element_set_no": 999,
        "meta_rev_at_epoch": 5121,
        "meta_bstar": 0,
        "meta_mean_motion_dot": -1.91e-06,
        "meta_mean_motion_ddot": 0,
        "tle_line1": "1 37948U 11073A   25341.80017225 -.00000191  00000+0  00000+0 0  9993",
        "tle_line2": "2 37948  48.0298 273.9181 0110406 222.1784 321.4594  1.00291658 51212"
      },
      "geometry": {
        "type": "Point",
        "coordinates": [
          -24.391832354368738,
          44.43187385847169
        ]
      }
    },
    {
      "type": "Feature",
      "properties": {
        "norad_id": 38091,
        "name": "BEIDOU-2 G5 (C05)",
        "group": "beidou",
        "lat": -2.6983599295049463,
        "lon": -49.30124702820753,
        "alt_km": 35734.497176852696,
        "timestamp": "2025-12-09T11:33:55.064715+00:00",
        "meta_object_name": "BEIDOU-2 G5 (C05)",
        "meta_object_id": "2012-008A",
        "meta_epoch": "2025-12-09T03:34:44.022432",
        "meta_mean_motion": 1.00274149,
        "meta_eccentricity": 0.001252,
        "meta_inclination": 3.1,
        "meta_ra_of_asc_node": 70.7096,
        "meta_arg_of_pericenter": 226.0989,
        "meta_mean_anomaly": 253.7636,
        "meta_ephemeris_type": 0,
        "meta_classification_type": "U",
        "meta_norad_cat_id": 38091,
        "meta_element_set_no": 999,
        "meta_rev_at_epoch": 5046,
        "meta_bstar": 0,
        "meta_mean_motion_dot": 5.8e-07,
        "meta_mean_motion_ddot": 0,
        "tle_line1": "1 38091U 12008A   25343.14912063  .00000058  00000+0  00000+0 0  9996",
        "tle_line2": "2 38091   3.1000  70.7096 0012520 226.0989 253.7636  1.00274149 50467"
      },
      "geometry": {
        "type": "Point",
        "coordinates": [
          -49.30124702820753,
          -2.6983599295049463
        ]
      }
    }
  ]
}